IRIDIUM 26              
1 24903U 97043A   25194.85289309  .00000290  00000+0  91061-4 0  9997
2 24903  86.3951  99.4221 0002214  79.5201 280.6246 14.37161599460578
IRIDIUM 22              
1 24907U 97043E   25194.45635186  .00000252  00000+0  80099-4 0  9992
2 24907  86.3959 103.1514 0002126  84.2879 275.8560 14.35971815460544
DUMMY MASS 1            
1 24925U 97048A   25194.52740526  .00000324  00000+0  32960-4 0  9994
2 24925  86.3364 123.1546 0008740  62.7923 297.4191 14.87002904509040
DUMMY MASS 2            
1 24926U 97048B   25194.89777404  .00000307  00000+0  31327-4 0  9997
2 24926  86.3366 124.5954 0009706  70.0730 290.1540 14.86755067508874
IRIDIUM 29              
1 24944U 97051A   25194.81823455  .00000287  00000+0  91154-4 0  9992
2 24944  86.3983 132.7322 0002202  90.3246 269.8204 14.36484620457096
IRIDIUM 33              
1 24946U 97051C   25194.75955009  .00000250  00000+0  81055-4 0  9997
2 24946  86.3899 132.0194 0008013   8.2194 351.9132 14.34905789456555
IRIDIUM 36              
1 24967U 97056C   25194.66463088  .00000293  00000+0  91115-4 0  9991
2 24967  86.4002 161.8827 0002065  83.3360 276.8073 14.37625786456028
